STARLINK-5527           
1 56497U 23064BB  26068.47617280  .00001077  00000+0  98056-4 0  9999
2 56497  69.9995 104.8725 0003128 269.9984  90.0817 14.98325687156200
HAWK-8C                 
1 59449U 24066H   26068.47383543  .00002400  00000+0  21518-3 0  9993
2 59449  45.6068  72.8656 0003935 260.2975  99.7462 14.98770227104860
